STARLINK-2151_new
1 18556C 21041D   21326.13609935  .00000143  00000-0  95896-5 0  3260
2 18556  53.0566 343.1215 0001518  60.0522 333.2765 15.06398094    19
STARLINK-2151_old
1 28556C 21041D   21325.15332957 -.00012880  00000-0 -86320-3 0  3250
2 28556  53.0561 347.5333 0001470  61.6116  39.1982 15.06402350    10
